     2.100          NAVIGATION                              RINEX VERSION / TYPE
fic2rin                                 10/03/2008 08:15:15 PGM / RUN BY / DATE
                                                            END OF HEADER
13 08 10  2  8  0  0.0  .272911041975D-03  .113686837722D-11  .000000000000D+00
     .120000000000D+02 -.105500000000D+03  .376015662562D-08  .292560438111D+01
    -.538118183613D-05  .366869941354D-02  .728480517864D-05  .515357415581D+04
     .374400000000D+06  .111758708954D-06 -.273954622464D+00 -.540167093277D-07
     .995680631123D+00  .255031250000D+03  .155264044989D+01 -.773032199894D-08
    -.288940606965D-09  .100000000000D+01  .149900000000D+04  .000000000000D+00
     .240000000000D+01  .000000000000D+00 -.111758708954D-07  .120000000000D+02
     .367206000000D+06  .400000000000D+01
15 08 10  2  8  0  0.0 -.187108758837D-03 -.648014975013D-11  .000000000000D+00
     .310000000000D+02 -.978750000000D+02  .471448209139D-08 -.276864975683D+01
    -.499747693539D-05  .954381306656D-03  .583194196224D-05  .515370915604D+04
     .374400000000D+06  .167638063431D-07 -.337010999872D+00  .447034835815D-07
     .957566973319D+00  .264062500000D+03 -.114486335682D+01 -.819819863074D-08
    -.197865384745D-09  .100000000000D+01  .149900000000D+04  .000000000000D+00
     .240000000000D+01  .000000000000D+00 -.977888703346D-08  .310000000000D+02
     .367206000000D+06  .400000000000D+01
16 08 10  2  8  0  0.0  .103789847344D-03 -.216004991671D-11  .000000000000D+00
     .460000000000D+02  .306250000000D+01  .479341395065D-08 -.179530046485D+01
     .182539224625D-06  .471449166071D-02  .498443841934D-05  .515367103767D+04
     .374400000000D+06 -.484287738800D-07  .178920841023D+01 -.316649675369D-07
     .966093436275D+00  .288343750000D+03 -.392855761688D+00 -.819998441941D-08
     .127505311108D-09  .100000000000D+01  .149900000000D+04  .000000000000D+00
     .240000000000D+01  .000000000000D+00 -.977888703346D-08  .460000000000D+02
     .367206000000D+06  .400000000000D+01
17 08 10  2  8  0  0.0  .391714274883D-04  .113686837722D-12  .000000000000D+00
     .440000000000D+02 -.241562500000D+02  .441018370185D-08 -.294573382228D+01
    -.119954347610D-05  .384289736394D-02  .913813710213D-05  .515359536934D+04
     .374400000000D+06  .000000000000D+00  .283082685318D+01 -.502914190292D-07
     .959976058536D+00  .200968750000D+03 -.279072519942D+01 -.782996900678D-08
    -.466448000860D-09  .100000000000D+01  .149900000000D+04  .000000000000D+00
     .240000000000D+01  .000000000000D+00 -.102445483208D-07  .440000000000D+02
     .367206000000D+06  .400000000000D+01
18 08 10  2  8  0  0.0 -.127798877656D-03  .397903932026D-11  .000000000000D+00
     .630000000000D+02  .278750000000D+02  .507521140293D-08 -.163949229729D+01
     .147521495819D-05  .988895830233D-02  .138022005558D-05  .515372392082D+04
     .374400000000D+06  .132247805595D-06 -.133781820212D+01 -.502914190292D-07
     .945515910613D+00  .340968750000D+03 -.245631436381D+01 -.851321175230D-08
     .230009580822D-09  .100000000000D+01  .149900000000D+04  .000000000000D+00
     .240000000000D+01  .000000000000D+00 -.107102096081D-07  .630000000000D+02
     .367206000000D+06  .400000000000D+01
19 08 10  2  8  0  0.0  .356240198016D-04  .113686837722D-12  .000000000000D+00
     .380000000000D+02 -.155625000000D+02  .446268588878D-08  .276628922440D+01
    -.795349478722D-06  .491012388375D-02  .961497426033D-05  .515373969460D+04
     .374400000000D+06  .558793544769D-08  .288753632100D+01  .782310962677D-07
     .957777733001D+00  .192593750000D+03 -.471276092438D+00 -.784282668521D-08
    -.500020827875D-09  .100000000000D+01  .149900000000D+04  .000000000000D+00
     .240000000000D+01  .000000000000D+00 -.144354999065D-07  .380000000000D+02
     .367206000000D+06  .400000000000D+01
20 08 10  2  8  0  0.0  .103039201349D-03 -.102318153949D-11  .000000000000D+00
     .580000000000D+02  .416562500000D+02  .521200281512D-08 -.156291781074D+01
     .232271850109D-05  .352608878165D-02  .134296715260D-05  .515376273155D+04
     .374400000000D+06  .577419996262D-07 -.139153504718D+01  .260770320892D-07
     .945060074117D+00  .347343750000D+03  .135328324310D+01 -.866536094707D-08
     .182507602174D-09  .100000000000D+01  .149900000000D+04  .000000000000D+00
     .240000000000D+01  .000000000000D+00 -.651925802231D-08  .580000000000D+02
     .367206000000D+06  .400000000000D+01
21 08 10  2  8  0  0.0  .483491457999D-04 -.147792889038D-11  .000000000000D+00
     .480000000000D+02  .923750000000D+02  .488627496154D-08 -.430499938359D+00
     .498443841934D-05  .143048859900D-01  .883266329765D-05  .515368911934D+04
     .374400000000D+06  .197440385818D-06 -.239668602186D+01  .176951289177D-06
     .935648178531D+00  .196125000000D+03 -.267449929410D+01 -.841356474446D-08
     .157863718515D-09  .100000000000D+01  .149900000000D+04  .000000000000D+00
     .240000000000D+01  .000000000000D+00 -.116415321827D-07  .480000000000D+02
     .367206000000D+06  .400000000000D+01
22 08 10  2  8  0  0.0  .210626050830D-03 -.341060513165D-12  .000000000000D+00
     .600000000000D+02  .308750000000D+02  .515235747351D-08 -.284915414312D+01
     .148080289364D-05  .515488896053D-02  .154413282871D-05  .515366804695D+04
     .374400000000D+06  .117346644402D-06 -.133160413719D+01  .931322574615D-08
     .943166096985D+00  .339906250000D+03 -.182370029102D+01 -.854535594838D-08
     .129648257513D-09  .100000000000D+01  .149900000000D+04  .000000000000D+00
     .485000000000D+01  .000000000000D+00 -.176951289177D-07  .600000000000D+02
     .367206000000D+06  .400000000000D+01
23 08 10  2  8  0  0.0  .375260133296D-03  .136424205266D-11  .000000000000D+00
     .127000000000D+03 -.104625000000D+03  .437053919336D-08  .210961957771D+01
    -.527501106262D-05  .587276124861D-02  .690296292305D-05  .515369345284D+04
     .374400000000D+06  .819563865662D-07 -.320346851755D+00  .158324837685D-06
     .971399542553D+00  .252437500000D+03  .284462306451D+01 -.807605068564D-08
    -.311798701953D-09  .100000000000D+01  .149900000000D+04  .000000000000D+00
     .340000000000D+01  .000000000000D+00 -.200234353542D-07  .127000000000D+03
     .367206000000D+06  .400000000000D+01
24 08 10  2  8  0  0.0  .129891093820D-03  .306954461848D-11  .000000000000D+00
     .170000000000D+02  .945625000000D+02  .446911472800D-08 -.176936516996D+01
     .494346022606D-05  .748380750883D-02  .980496406555D-05  .515366825294D+04
     .374400000000D+06 -.152736902237D-06 -.236856398335D+01  .167638063431D-07
     .952278240657D+00  .188875000000D+03 -.700718322176D+00 -.802533428739D-08
     .228580949885D-09  .100000000000D+01  .149900000000D+04  .000000000000D+00
     .240000000000D+01  .000000000000D+00 -.139698386192D-08  .170000000000D+02
     .367206000000D+06  .400000000000D+01
26 08 10  2  8  0  0.0  .333701260388D-03  .522959453519D-11  .000000000000D+00
     .430000000000D+02 -.105812500000D+03  .384087427354D-08  .162129380265D+01
    -.556558370590D-05  .191895614844D-01  .718422234058D-05  .515363560867D+04
     .374400000000D+06 -.433996319771D-06 -.275667869233D+00 -.137835741043D-06
     .993588762137D+00  .264125000000D+03  .955636177465D+00 -.786497046473D-08
    -.258939357292D-09  .100000000000D+01  .149900000000D+04  .000000000000D+00
     .240000000000D+01  .000000000000D+00 -.605359673500D-08  .430000000000D+02
     .367206000000D+06  .400000000000D+01
28 08 10  2  8  0  0.0 -.229165889323D-04 -.227373675443D-12  .000000000000D+00
     .790000000000D+02 -.343750000000D+00  .469626704694D-08 -.250601607660D+01
    -.745058059692D-08  .140277786413D-01  .503100454807D-05  .515362614822D+04
     .374400000000D+06  .143423676491D-06  .179771824712D+01 -.931322574615D-07
     .964266450551D+00  .283562500000D+03 -.209115045201D+01 -.786247036059D-08
     .196079596074D-09  .100000000000D+01  .149900000000D+04  .000000000000D+00
     .340000000000D+01  .000000000000D+00 -.102445483208D-07  .790000000000D+02
     .367206000000D+06  .400000000000D+01
29 08 10  2  8  0  0.0 -.358559191227D-04  .125055521494D-11  .000000000000D+00
     .250000000000D+02 -.330937500000D+02  .447125767440D-08 -.285358784259D+00
    -.159256160259D-05  .342203397304D-02  .911019742489D-05  .515358887100D+04
     .374400000000D+06 -.135973095894D-06  .283898811765D+01  .931322574615D-08
     .960131732038D+00  .204687500000D+03 -.137023461762D+01 -.796283168390D-08
    -.471805366873D-09  .100000000000D+01  .149900000000D+04  .000000000000D+00
     .240000000000D+01  .000000000000D+00 -.884756445885D-08  .250000000000D+02
     .367206000000D+06  .400000000000D+01
30 08 10  2  8  0  0.0  .997302122414D-04  .204636307899D-11  .000000000000D+00
     .183000000000D+03  .865625000000D+01  .504771025739D-08 -.207725592966D+01
     .549480319023D-06  .111399226589D-01  .487267971039D-05  .515367919159D+04
     .374400000000D+06  .165775418282D-06  .172871356141D+01  .596046447754D-07
     .949373055050D+00  .279218750000D+03  .140536674451D+01 -.817034032747D-08
     .166078346401D-09  .100000000000D+01  .149900000000D+04  .000000000000D+00
     .340000000000D+01  .000000000000D+00 -.791624188423D-08  .183000000000D+03
     .367206000000D+06  .400000000000D+01
31 08 10  2  8  0  0.0 -.299499370158D-04 -.238742359215D-11  .000000000000D+00
     .850000000000D+02 -.753125000000D+01  .424731977506D-08  .385068231820D+00
    -.432133674622D-06  .672645121813D-02  .106226652861D-04  .515355125427D+04
     .374400000000D+06 -.726431608200D-07  .718837361341D+00 -.707805156708D-07
     .969654051606D+00  .182375000000D+03 -.123962614585D+01 -.791140097018D-08
     .310727228751D-09  .100000000000D+01  .149900000000D+04  .000000000000D+00
     .240000000000D+01  .000000000000D+00 -.130385160446D-07  .850000000000D+02
     .367206000000D+06  .400000000000D+01
